GLOBALSTAR M057 [-]     
1 25943U 99058A   23305.90486654 -.00000041  00000+0  47618-3 0  9993
2 25943  51.9981 231.8528 0001785 229.1185 130.9510 12.24777534 94235
GLOBALSTAR M059 [-]     
1 25944U 99058B   23305.95320759 -.00000089  00000+0 -30330-4 0  9999
2 25944  52.0045  12.0243 0000393 175.4816 355.7168 11.99953878 91578
GLOBALSTAR M056 [-]     
1 25945U 99058C   23305.54812135 -.00000016  00000+0  83554-3 0  9993
2 25945  51.9993  30.3307 0001413 101.6141 271.7865 12.04770682 91072
GLOBALSTAR M031 [-]     
1 25946U 99058D   23305.80442660  .00000003  00000+0  94991-3 0  9997
2 25946  51.9973 317.4558 0001820  53.8289 116.9680 12.15997528 92350
GLOBALSTAR M039 [-]     
1 25961U 99062A   23306.17214771 -.00000069  00000+0  19167-3 0  9995
2 25961  51.9844 274.8393 0003088 105.6641 254.4566 12.62273218105354
GLOBALSTAR M034 [-]     
1 25962U 99062B   23305.78049444 -.00000082  00000+0 -19265-4 0  9991
2 25962  51.9847 113.8595 0013998   5.3727   7.6214 11.79416963 68377
GLOBALSTAR M029 [-]     
1 25963U 99062C   23305.79892639 -.00000062  00000+0  29904-3 0  9992
2 25963  51.9798 260.9851 0003196  35.4309 326.6312 11.99869603 97898
GLOBALSTAR M061 [-]     
1 25964U 99062D   23305.96843492 -.00000035  00000+0  74029-3 0  9993
2 25964  51.9793 289.5496 0005881 294.6191  80.4226 11.76752776 51343
